[{"OBJECT_NAME":"STARLINK-3780","OBJECT_ID":"2022-041T","EPOCH":"2026-03-09T19:12:21.414240","MEAN_MOTION":15.08837,"ECCENTRICITY":0.00011974,"INCLINATION":53.2158,"RA_OF_ASC_NODE":108.623,"ARG_OF_PERICENTER":87.9679,"MEAN_ANOMALY":272.1451,"EPHEMERIS_TYPE":0,"CLASSIFICATION_TYPE":"U","NORAD_CAT_ID":52278,"ELEMENT_SET_NO":999,"REV_AT_EPOCH":21438,"BSTAR":3.4336727e-5,"MEAN_MOTION_DOT":2.59e-6,"MEAN_MOTION_DDOT":0},{"OBJECT_NAME":"YUNYAO-1 47","OBJECT_ID":"2025-059E","EPOCH":"2026-03-09T22:46:15.708288","MEAN_MOTION":15.10508558,"ECCENTRICITY":0.00172664,"INCLINATION":97.6066,"RA_OF_ASC_NODE":250.9227,"ARG_OF_PERICENTER":135.6694,"MEAN_ANOMALY":224.5922,"EPHEMERIS_TYPE":0,"CLASSIFICATION_TYPE":"U","NORAD_CAT_ID":63348,"ELEMENT_SET_NO":999,"REV_AT_EPOCH":5331,"BSTAR":0.00029014568,"MEAN_MOTION_DOT":4.732e-5,"MEAN_MOTION_DDOT":0}]
